[
    {
        "Altitude(m)": 705151.3844963565,
        "Argument of Periapsis(deg)": 0.011390121186627068,
        "Eccentricity": 0.0,
        "Inclination(deg)": 45.0,
        "Latitude(deg)": 34.973806634063635,
        "Longitude(deg)": 80.13793598765527,
        "Mean Anomaly(deg)": 126.07871664748085,
        "RAAN(deg)": 44.9892480585418,
        "Satellite Name": "Constellation 1 205",
        "Satellite Number": 205,
        "Semi-Major Axis(m)": 7083131.272910544,
        "Time(s)": 190
    },
    {
        "Altitude(m)": 705145.4457071109,
        "Argument of Periapsis(deg)": 0.011450069192872472,
        "Eccentricity": 0.0,
        "Inclination(deg)": 45.0,
        "Latitude(deg)": 34.942839223654325,
        "Longitude(deg)": 80.19750909449105,
        "Mean Anomaly(deg)": 126.13941778773074,
        "RAAN(deg)": 44.98919146937622,
        "Satellite Name": "Constellation 1 205",
        "Satellite Number": 205,
        "Semi-Major Axis(m)": 7083131.272910544,
        "Time(s)": 191
    },
    {
        "Altitude(m)": 705139.5054378181,
        "Argument of Periapsis(deg)": 0.01151001719911788,
        "Eccentricity": 0.0,
        "Inclination(deg)": 45.0,
        "Latitude(deg)": 34.91183830757274,
        "Longitude(deg)": 80.25703434478785,
        "Mean Anomaly(deg)": 126.20011892798061,
        "RAAN(deg)": 44.989134880210656,
        "Satellite Name": "Constellation 1 205",
        "Satellite Number": 205,
        "Semi-Major Axis(m)": 7083131.272910544,
        "Time(s)": 192
    },
    {
        "Altitude(m)": 705133.5637264176,
        "Argument of Periapsis(deg)": 0.011569965205363285,
        "Eccentricity": 0.0,
        "Inclination(deg)": 45.0,
        "Latitude(deg)": 34.880803948743875,
        "Longitude(deg)": 80.31651161003771,
        "Mean Anomaly(deg)": 126.26082006823056,
        "RAAN(deg)": 44.98907829104508,
        "Satellite Name": "Constellation 1 205",
        "Satellite Number": 205,
        "Semi-Major Axis(m)": 7083131.272910544,
        "Time(s)": 193
    },
    {
        "Altitude(m)": 705127.6206108555,
        "Argument of Periapsis(deg)": 0.01162991321160869,
        "Eccentricity": 0.0,
        "Inclination(deg)": 45.0,
        "Latitude(deg)": 34.84973621002883,
        "Longitude(deg)": 80.37594126622244,
        "Mean Anomaly(deg)": 126.32152120848043,
        "RAAN(deg)": 44.989021701879516,
        "Satellite Name": "Constellation 1 205",
        "Satellite Number": 205,
        "Semi-Major Axis(m)": 7083131.272910544,
        "Time(s)": 194
    },
    {
        "Altitude(m)": 705121.6761291202,
        "Argument of Periapsis(deg)": 0.011689861217854095,
        "Eccentricity": 0.0,
        "Inclination(deg)": 45.0,
        "Latitude(deg)": 34.81863515422376,
        "Longitude(deg)": 80.43532318522894,
        "Mean Anomaly(deg)": 126.38222234873032,
        "RAAN(deg)": 44.98896511271395,
        "Satellite Name": "Constellation 1 205",
        "Satellite Number": 205,
        "Semi-Major Axis(m)": 7083131.272910544,
        "Time(s)": 195
    },
    {
        "Altitude(m)": 705115.7303192056,
        "Argument of Periapsis(deg)": 0.0117498092240995,
        "Eccentricity": 0.0,
        "Inclination(deg)": 45.0,
        "Latitude(deg)": 34.78750084406036,
        "Longitude(deg)": 80.49465740723713,
        "Mean Anomaly(deg)": 126.44292348898021,
        "RAAN(deg)": 44.98890852354838,
        "Satellite Name": "Constellation 1 205",
        "Satellite Number": 205,
        "Semi-Major Axis(m)": 7083131.272910544,
        "Time(s)": 196
    },
    {
        "Altitude(m)": 705109.7832191382,
        "Argument of Periapsis(deg)": 0.011809757230344905,
        "Eccentricity": 0.0,
        "Inclination(deg)": 45.0,
        "Latitude(deg)": 34.75633334220531,
        "Longitude(deg)": 80.55394397262155,
        "Mean Anomaly(deg)": 126.50362462923013,
        "RAAN(deg)": 44.98885193438281,
        "Satellite Name": "Constellation 1 205",
        "Satellite Number": 205,
        "Semi-Major Axis(m)": 7083131.272910544,
        "Time(s)": 197
    },
    {
        "Altitude(m)": 705103.8348669664,
        "Argument of Periapsis(deg)": 0.011869705236590313,
        "Eccentricity": 0.0,
        "Inclination(deg)": 45.0,
        "Latitude(deg)": 34.72513271126043,
        "Longitude(deg)": 80.61318292194983,
        "Mean Anomaly(deg)": 126.56432576948,
        "RAAN(deg)": 44.98879534521724,
        "Satellite Name": "Constellation 1 205",
        "Satellite Number": 205,
        "Semi-Major Axis(m)": 7083131.272910544,
        "Time(s)": 198
    },
    {
        "Altitude(m)": 705097.8853007536,
        "Argument of Periapsis(deg)": 0.011929653242835719,
        "Eccentricity": 0.0,
        "Inclination(deg)": 45.0,
        "Latitude(deg)": 34.693899013762234,
        "Longitude(deg)": 80.67237429598181,
        "Mean Anomaly(deg)": 126.62502690972991,
        "RAAN(deg)": 44.98873875605167,
        "Satellite Name": "Constellation 1 205",
        "Satellite Number": 205,
        "Semi-Major Axis(m)": 7083131.272910544,
        "Time(s)": 199
    }
]